NORAD_CAT_ID,OBJECT_NAME,OBJECT_TYPE,EPOCH,MEAN_MOTION,ECCENTRICITY,INCLINATION,RA_OF_ASC_NODE,ARG_OF_PERICENTER,MEAN_ANOMALY,BSTAR,MEAN_MOTION_DOT,MEAN_MOTION_DDOT,TLE_LINE0,TLE_LINE1,TLE_LINE2,SEMIMAJOR_AXIS,PERIOD,APOGEE,PERIGEE,DECAYED
52566.0,STARLINK-3938,PAYLOAD,2024-04-24 13:02:41,15.08844704,0.0001356,53.2191,325.3774,84.9077,275.207,0.00037206,5.639e-05,0.0,0 STARLINK-3938,1 52566U 22051AK  24115.54353462  .00005639  00000-0  37206-3 0  9993,2 52566  53.2191 325.3774 0001356  84.9077 275.2070 15.08844704108168,6917.866,95.437,540.669,538.793,0.0
52566.0,STARLINK-3938,PAYLOAD,2024-04-24 20:59:37,15.08845021,0.0001348,53.2191,323.8875,95.8335,264.2811,0.00032308,4.858e-05,0.0,0 STARLINK-3938,1 52566U 22051AK  24115.87473407  .00004858  00000-0  32308-3 0  9991,2 52566  53.2191 323.8875 0001348  95.8335 264.2811 15.08845021108144,6917.865,95.437,540.663,538.798,0.0
52566.0,STARLINK-3938,PAYLOAD,2024-04-25 14:28:51,15.08840674,0.0001414,53.2186,320.6155,113.8827,246.2314,0.00015895,2.243e-05,0.0,0 STARLINK-3938,1 52566U 22051AK  24116.60337489  .00002243  00000-0  15895-3 0  9990,2 52566  53.2186 320.6155 0001414 113.8827 246.2314 15.08840674108254,6917.878,95.438,540.722,538.765,0.0
52566.0,STARLINK-3938,PAYLOAD,2024-04-25 20:50:23,15.08845037,0.0001297,53.2189,319.4238,107.7585,252.3549,0.00017411,2.485e-05,0.0,0 STARLINK-3938,1 52566U 22051AK  24116.86833290  .00002485  00000-0  17411-3 0  9993,2 52566  53.2189 319.4238 0001297 107.7585 252.3549 15.08845037108365,6917.865,95.437,540.627,538.833,0.0
52566.0,STARLINK-3938,PAYLOAD,2024-04-26 06:22:43,15.08838009,0.000107,53.2174,317.6333,114.4617,245.6487,0.00014132,1.962e-05,0.0,0 STARLINK-3938,1 52566U 22051AK  24117.26577607  .00001962  00000-0  14132-3 0  9991,2 52566  53.2174 317.6333 0001070 114.4617 245.6487 15.08838009108429,6917.886,95.438,540.492,539.011,0.0
52566.0,STARLINK-3938,PAYLOAD,2024-04-26 20:41:11,15.08846199,0.0001376,53.2181,314.9601,100.0365,260.0783,0.00023329,3.427e-05,0.0,0 STARLINK-3938,1 52566U 22051AK  24117.86193563  .00003427  00000-0  23329-3 0  9998,2 52566  53.2181 314.9601 0001376 100.0365 260.0783 15.08846199108446,6917.861,95.437,540.678,538.775,0.0
52566.0,STARLINK-3938,PAYLOAD,2024-04-27 12:35:02,15.08847926,0.000115,53.2171,311.9929,85.4746,274.6377,0.00018353,2.635e-05,0.0,0 STARLINK-3938,1 52566U 22051AK  24118.52433334  .00002635  00000-0  18353-3 0  9996,2 52566  53.2171 311.9929 0001150  85.4746 274.6377 15.08847926108612,6917.856,95.437,540.517,538.926,0.0
52566.0,STARLINK-3938,PAYLOAD,2024-04-27 20:31:57,15.08851565,0.0001106,53.2172,310.5052,86.0261,274.0857,0.00018188,2.609e-05,0.0,0 STARLINK-3938,1 52566U 22051AK  24118.85552954  .00002609  00000-0  18188-3 0  9999,2 52566  53.2172 310.5052 0001106  86.0261 274.0857 15.08851565108593,6917.845,95.437,540.475,538.945,0.0
52566.0,STARLINK-3938,PAYLOAD,2024-04-28 12:25:49,15.08836798,0.0001396,53.2164,307.5286,83.0972,277.0179,7.0644e-05,8.36e-06,0.0,0 STARLINK-3938,1 52566U 22051AK  24119.51793833  .00000836  00000-0  70644-4 0  9992,2 52566  53.2164 307.5286 0001396  83.0972 277.0179 15.08836798108766,6917.89,95.438,540.721,538.789,0.0
52566.0,STARLINK-3938,PAYLOAD,2024-04-28 18:47:22,15.0883748,0.0001205,53.2175,306.3403,83.129,276.9839,3.7562e-05,3.1e-06,0.0,0 STARLINK-3938,1 52566U 22051AK  24119.78289716  .00000310  00000-0  37562-4 0  9990,2 52566  53.2175 306.3403 0001205  83.1290 276.9839 15.08837480108736,6917.888,95.438,540.587,538.919,0.0
52566.0,STARLINK-3938,PAYLOAD,2024-04-29 05:55:04,15.0883701,0.0001218,53.2179,304.2595,83.8875,276.2256,-2.9602e-05,-7.59e-06,0.0,0 STARLINK-3938,1 52566U 22051AK  24120.24657814 -.00000759  00000-0 -29602-4 0  9996,2 52566  53.2179 304.2595 0001218  83.8875 276.2256 15.08837010108802,6917.89,95.438,540.597,538.912,0.0
52566.0,STARLINK-3938,PAYLOAD,2024-04-29 18:38:09,15.08834308,0.0001019,53.219,301.8799,89.7082,270.4027,7.6223e-05,9.25e-06,0.0,0 STARLINK-3938,1 52566U 22051AK  24120.77650147  .00000925  00000-0  76223-4 0  9990,2 52566  53.2190 301.8799 0001019  89.7082 270.4027 15.08834308108953,6917.898,95.438,540.468,539.058,0.0
52566.0,STARLINK-3938,PAYLOAD,2024-04-29 21:48:55,15.08842104,0.0001134,53.2185,301.284,96.9297,263.1824,1.0086e-05,-1.27e-06,0.0,0 STARLINK-3938,1 52566U 22051AK  24120.90897740 -.00000127  00000-0  10086-4 0  9997,2 52566  53.2185 301.2840 0001134  96.9297 263.1824 15.08842104108906,6917.874,95.437,540.523,538.954,0.0
52566.0,STARLINK-3938,PAYLOAD,2024-04-30 21:39:42,15.08845758,0.0001192,53.2188,296.824,82.7274,277.3854,0.00015935,2.249e-05,0.0,0 STARLINK-3938,1 52566U 22051AK  24121.90257300  .00002249  00000-0  15935-3 0  9993,2 52566  53.2188 296.8240 0001192  82.7274 277.3854 15.08845758109059,6917.863,95.437,540.552,538.903,0.0
52566.0,STARLINK-3938,PAYLOAD,2024-05-01 11:58:11,15.08837233,0.0001227,53.2187,294.1467,84.0832,276.03,0.00012235,1.66e-05,0.0,0 STARLINK-3938,1 52566U 22051AK  24122.49873960  .00001660  00000-0  12235-3 0  9990,2 52566  53.2187 294.1467 0001227  84.0832 276.0300 15.08837233109213,6917.889,95.438,540.603,538.905,0.0
52566.0,STARLINK-3938,PAYLOAD,2024-05-02 03:52:01,15.08847218,0.0001163,53.2183,291.1729,78.4544,281.6579,0.00010931,1.453e-05,0.0,0 STARLINK-3938,1 52566U 22051AK  24123.16113249  .00001453  00000-0  10931-3 0  9993,2 52566  53.2183 291.1729 0001163  78.4544 281.6579 15.08847218109318,6917.858,95.437,540.528,538.919,0.0
52566.0,STARLINK-3938,PAYLOAD,2024-05-02 11:48:58,15.08838084,0.0001724,53.2196,289.6887,79.2198,280.8988,3.4783e-05,2.66e-06,0.0,0 STARLINK-3938,1 52566U 22051AK  24123.49234181  .00000266  00000-0  34783-4 0  9991,2 52566  53.2196 289.6887 0001724  79.2198 280.8988 15.08838084109367,6917.886,95.438,540.944,538.559,0.0
52566.0,STARLINK-3938,PAYLOAD,2024-05-02 14:59:44,15.0883507,0.0001331,53.2191,289.0931,91.8182,268.2962,-6.3155e-05,-1.293e-05,0.0,0 STARLINK-3938,1 52566U 22051AK  24123.62482488 -.00001293  00000-0 -63155-4 0  9999,2 52566  53.2191 289.0931 0001331  91.8182 268.2962 15.08835070109312,6917.895,95.438,540.681,538.84,0.0
52566.0,STARLINK-3938,PAYLOAD,2024-05-03 10:04:21,15.08845466,0.0001416,53.2181,285.5253,94.6644,265.451,0.00011194,1.494e-05,0.0,0 STARLINK-3938,1 52566U 22051AK  24124.41969438  .00001494  00000-0  11194-3 0  9998,2 52566  53.2181 285.5253 0001416  94.6644 265.4510 15.08845466109506,6917.864,95.437,540.708,538.749,0.0
52566.0,STARLINK-3938,PAYLOAD,2024-05-03 14:50:32,15.08786875,0.0002685,53.2184,284.6343,89.2664,270.8636,0.0011173,0.00017513,0.0,0 STARLINK-3938,1 52566U 22051AK  24124.61843047  .00017513  00000-0  11173-2 0  9992,2 52566  53.2184 284.6343 0002685  89.2664 270.8636 15.08786875109462,6918.043,95.441,541.765,538.05,0.0
52566.0,STARLINK-3938,PAYLOAD,2024-05-03 18:01:15,15.08871801,0.00015,53.2175,284.0392,91.4188,268.6976,-0.00032717,-5.496e-05,0.0,0 STARLINK-3938,1 52566U 22051AK  24124.75087807 -.00005496  00000-0 -32717-3 0  9998,2 52566  53.2175 284.0392 0001500  91.4188 268.6976 15.08871801109557,6917.783,95.436,540.686,538.611,0.0
52566.0,STARLINK-3938,PAYLOAD,2024-05-04 03:33:36,15.08843295,0.0001374,53.2175,282.255,75.761,284.3534,0.00024787,3.659e-05,0.0,0 STARLINK-3938,1 52566U 22051AK  24125.14833411  .00003659  00000-0  24787-3 0  9997,2 52566  53.2175 282.2550 0001374  75.7610 284.3534 15.08843295109615,6917.87,95.437,540.686,538.785,0.0
52566.0,STARLINK-3938,PAYLOAD,2024-05-04 19:27:27,15.08833358,0.00012,53.2164,279.2807,77.343,282.7696,-4.6422e-05,-1.026e-05,0.0,0 STARLINK-3938,1 52566U 22051AK  24125.81073973 -.00001026  00000-0 -46422-4 0  9999,2 52566  53.2164 279.2807 0001200  77.3430 282.7696 15.08833358109711,6917.901,95.438,540.596,538.936,0.0
52566.0,STARLINK-3938,PAYLOAD,2024-05-05 14:32:05,15.08851809,0.0001209,53.2164,275.712,69.9275,290.1848,0.001096,0.00017203,0.0,0 STARLINK-3938,1 52566U 22051AK  24126.60562047  .00017203  00000-0  10960-2 0  9990,2 52566  53.2164 275.7120 0001209  69.9275 290.1848 15.08851809109761,6917.844,95.437,540.546,538.873,0.0
52566.0,STARLINK-3938,PAYLOAD,2024-05-05 17:42:51,15.08860893,0.0001209,53.2165,275.1171,69.8255,290.2867,0.0013302,0.00020958,0.0,0 STARLINK-3938,1 52566U 22051AK  24126.73809872  .00020958  00000-0  13302-2 0  9998,2 52566  53.2165 275.1171 0001209  69.8255 290.2867 15.08860893109854,6917.817,95.436,540.518,538.845,0.0
52566.0,STARLINK-3938,PAYLOAD,2024-05-06 03:15:10,15.0885903,0.000145,53.2156,273.3349,65.6404,294.4739,0.00094219,0.00014747,0.0,0 STARLINK-3938,1 52566U 22051AK  24127.13553833  .00014747  00000-0  94219-3 0  9992,2 52566  53.2156 273.3349 0001450  65.6404 294.4739 15.08859030109911,6917.822,95.436,540.69,538.684,0.0
52566.0,STARLINK-3938,PAYLOAD,2024-05-06 15:58:15,15.08861674,0.0001407,53.2167,270.9539,73.0591,287.0555,0.00089314,0.00013963,0.0,0 STARLINK-3938,1 52566U 22051AK  24127.66545524  .00013963  00000-0  89314-3 0  9997,2 52566  53.2167 270.9539 0001407  73.0591 287.0555 15.08861674109998,6917.814,95.436,540.652,538.706,0.0
52566.0,STARLINK-3938,PAYLOAD,2024-05-07 12:38:16,15.08839506,0.0001355,53.2178,267.0878,67.3265,292.7871,0.00074727,0.00011625,0.0,0 STARLINK-3938,1 52566U 22051AK  24128.52658152  .00011625  00000-0  74727-3 0  9990,2 52566  53.2178 267.0878 0001355  67.3265 292.7871 15.08839506110129,6917.882,95.438,540.684,538.81,0.0
52566.0,STARLINK-3938,PAYLOAD,2024-05-07 14:13:39,15.08827735,0.0002571,53.2174,266.7914,132.9263,227.1945,-0.00033591,-5.629e-05,0.0,0 STARLINK-3938,1 52566U 22051AK  24128.59282383 -.00005629  00000-0 -33591-3 0  9999,2 52566  53.2174 266.7914 0002571 132.9263 227.1945 15.08827735110068,6917.918,95.438,541.561,538.004,0.0
52566.0,STARLINK-3938,PAYLOAD,2024-05-07 15:49:02,15.08854242,0.0002112,53.2176,266.4929,31.0138,329.0979,0.0010981,0.00017238,0.0,0 STARLINK-3938,1 52566U 22051AK  24128.65905882  .00017238  00000-0  10981-2 0  9996,2 52566  53.2176 266.4929 0002112  31.0138 329.0979 15.08854242110145,6917.837,95.437,541.163,538.241,0.0
